,CASEID,ADDRESS,NEIGH,NEIGH-Income,ZIP,POLICED,COUNCILD,SOURCE,Sum SOURCE ,CATEGORY,Sum CATEGORY ,DAYTOCLOSE,Sum DAYTOCLOSE,TYPE,CATTYPE,GROUP311,VIS_STREET,DEPT,WORKGRP,REQTYPE,DETAIL,CREATEDATE,CREATTIME,CREATEMO,CREATEYR,STATUS,EXCEEDTIME,CLOSEDATE,CLOSEMO,CLOSEYR,DAYTOCLOSE.1,ADDGEOC,COUNTY,Latitude,Longitude,APN,CASEURL
2817,2019165690,4702 NE Vivion Rd,Foxwoods-Carriage Hills,H,64119.0,Shoal Creek,1.0,PHONE,30436,Public Health,1447,4,2743,Food Establishment,Public Health Food Establishment,PUBLIC_HEALT_SAFETY_WORKS,NOT_VISIBLE,Health,Health-Food Protection-,Public Health-Food Establishment-Restaurant,Restaurant,9/13/2019,12:29 PM,9,2019,RESOL,N,9/17/2019,9.0,2019.0,4.0,"4702 NE Vivion Rd64119
(39.188451, -94.524683)",Clay,39.188451,-94.524683,80906,http://city.kcmo.org/kc/ActionCenterRequest/CaseInfo.aspx?CaseID=2019165690
2818,2019207859,8934 NW Skyview Ave,Coves North,H,64154.0,North,2.0,WEB,13543,Public Health,1447,10,807,Food Establishment,Public Health Food Establishment,PUBLIC_HEALT_SAFETY_WORKS,NOT_VISIBLE,Health,Health-Food Protection-,Public Health-Food Establishment-Restaurant,Restaurant,12/21/2019,9:10 AM,12,2019,RESOL,N,12/31/2019,12.0,2019.0,10.0,"8934 NW Skyview Ave64154
(39.257504, -94.653189)",Platte,39.257504,-94.653189,245854,http://city.kcmo.org/kc/ActionCenterRequest/CaseInfo.aspx?CaseID=2019207859
2819,2020028388,11202 N Ambassador Dr,KCI & 2nd Creek,H,64153.0,North,2.0,PHONE,30436,Public Health,1447,3,3615,Food Establishment,Public Health Food Establishment,PUBLIC_HEALT_SAFETY_WORKS,NOT_VISIBLE,Health,Health-Food Protection-,Public Health-Food Establishment-Restaurant,Restaurant,2/25/2020,3:17 PM,2,2020,RESOL,N,2/28/2020,2.0,2020.0,3.0,"11202 N Ambassador Dr64153
(39.297205, -94.682137)",Platte,39.297205,-94.682137,171772,http://city.kcmo.org/kc/ActionCenterRequest/CaseInfo.aspx?CaseID=2020028388
2820,2019165877,4702 NE Vivion Rd,Foxwoods-Carriage Hills,H,64119.0,Shoal Creek,1.0,PHONE,30436,Public Health,1447,4,2743,Food Establishment,Public Health Food Establishment,PUBLIC_HEALT_SAFETY_WORKS,NOT_VISIBLE,Health,Health-Food Protection-,Public Health-Food Establishment-Restaurant,Restaurant,9/13/2019,3:25 PM,9,2019,RESOL,N,9/17/2019,9.0,2019.0,4.0,"4702 NE Vivion Rd64119
(39.188451, -94.524683)",Clay,39.188451,-94.524683,80906,http://city.kcmo.org/kc/ActionCenterRequest/CaseInfo.aspx?CaseID=2019165877
2821,2019194873,501 W 75th St,Ward Parkway,H,64114.0,Metro,6.0,PHONE,30436,Public Health,1447,2,4179,Food Establishment,Public Health Food Establishment,PUBLIC_HEALT_SAFETY_WORKS,NOT_VISIBLE,Health,Health-Food Protection-,Public Health-Food Establishment-Restaurant,Restaurant,11/20/2019,2:30 PM,11,2019,RESOL,N,11/22/2019,11.0,2019.0,2.0,"501 W 75th St64114
(38.992296, -94.595415)",Jackson,38.992296,-94.595415,119821,http://city.kcmo.org/kc/ActionCenterRequest/CaseInfo.aspx?CaseID=2019194873
2822,2019164459,651 E 59th St,Western 49-63,H,64110.0,Metro,6.0,PHONE,30436,Public Health,1447,2,4179,Food Establishment,Public Health Food Establishment,PUBLIC_HEALT_SAFETY_WORKS,NOT_VISIBLE,Health,Health-Food Protection-,Public Health-Food Establishment-Restaurant,Restaurant,9/11/2019,2:05 PM,9,2019,RESOL,N,9/13/2019,9.0,2019.0,2.0,"651 E 59th St64110
(39.019952, -94.579209)",Jackson,39.019952,-94.579209,105885,http://city.kcmo.org/kc/ActionCenterRequest/CaseInfo.aspx?CaseID=2019164459
2823,2019186029,651 E 59th St,Western 49-63,H,64110.0,Metro,6.0,PHONE,30436,Public Health,1447,2,4179,Food Establishment,Public Health Food Establishment,PUBLIC_HEALT_SAFETY_WORKS,NOT_VISIBLE,Health,Health-Food Protection-,Public Health-Food Establishment-Restaurant,Restaurant,10/29/2019,11:20 AM,10,2019,RESOL,N,10/31/2019,10.0,2019.0,2.0,"651 E 59th St64110
(39.019952, -94.579209)",Jackson,39.019952,-94.579209,105885,http://city.kcmo.org/kc/ActionCenterRequest/CaseInfo.aspx?CaseID=2019186029
2824,2019203482,6404 Oak St,Morningside,H,64113.0,Metro,6.0,PHONE,30436,Public Health,1447,3,3615,Services,Public Health Services,PUBLIC_HEALT_SAFETY_WORKS,NOT_VISIBLE,Health,Health-Healthy Homes-,Public Health-Services-Healthy Homes Information,Healthy Homes Information,12/13/2019,11:56 AM,12,2019,RESOL,N,12/16/2019,12.0,2019.0,3.0,"6404 Oak St64113
(39.0115, -94.584241)",Jackson,39.0115,-94.584241,107090,http://city.kcmo.org/kc/ActionCenterRequest/CaseInfo.aspx?CaseID=2019203482
2825,2020007029,5410 NE Oak Ridge Dr,Ravenwood-Somerset,H,64119.0,Shoal Creek,1.0,PHONE,30436,Public Health,1447,180,2874,Food Establishment,Public Health Food Establishment,PUBLIC_HEALT_SAFETY_WORKS,NOT_VISIBLE,Health,Health-Food Protection-,Public Health-Food Establishment-Restaurant,Restaurant,1/16/2020,11:46 AM,1,2020,OPEN,N,,,,,"5410 NE Oak Ridge Dr64119
(39.194455, -94.51355)",Clay,39.194455,-94.51355,80485,http://city.kcmo.org/kc/ActionCenterRequest/CaseInfo.aspx?CaseID=2020007029
2826,2019198033,5536 A Troost Ave,Western 49-63,H,64110.0,Metro,4.0,WEB,13543,Public Health,1447,6,2053,Food Establishment,Public Health Food Establishment,PUBLIC_HEALT_SAFETY_WORKS,NOT_VISIBLE,Health,Health-Food Protection-,Public Health-Food Establishment-Restaurant,Restaurant,11/30/2019,3:06 PM,11,2019,RESOL,N,12/6/2019,12.0,2019.0,6.0,"5536 A Troost Ave64110
(39.025822, -94.574248)",Jackson,39.025822,-94.574248,144509,http://city.kcmo.org/kc/ActionCenterRequest/CaseInfo.aspx?CaseID=2019198033
2827,2020026815,3798 NE Barry Rd,Shoal Creek,H,64156.0,Shoal Creek,1.0,WEB,13543,Public Health,1447,14,674,Outdoor Air Quality,Public Health Outdoor Air Quality,PUBLIC_HEALT_SAFETY_WORKS,VISIBLE,Health,Health-Air Quality-,Public Health-Outdoor Air Quality-All,All,2/21/2020,6:40 PM,2,2020,RESOL,Y,3/6/2020,3.0,2020.0,14.0,"3798 NE Barry Rd64156
(39.251131, -94.53694)",Clay,39.251131,-94.53694,219183,http://city.kcmo.org/kc/ActionCenterRequest/CaseInfo.aspx?CaseID=2020026815
2828,2019185724,4801 Main St,South Plaza,H,64112.0,Metro,4.0,WEB,13543,Public Health,1447,7,1826,Food Establishment,Public Health Food Establishment,PUBLIC_HEALT_SAFETY_WORKS,NOT_VISIBLE,Health,Health-Food Protection-,Public Health-Food Establishment-Restaurant,Restaurant,10/28/2019,6:03 PM,10,2019,RESOL,N,11/4/2019,11.0,2019.0,7.0,"4801 Main St64112
(39.0392, -94.586595)",Jackson,39.0392,-94.586595,215425,http://city.kcmo.org/kc/ActionCenterRequest/CaseInfo.aspx?CaseID=2019185724
2829,2019185409,9600 NE Barry Rd,Shoal Creek,H,64157.0,Shoal Creek,1.0,PHONE,30436,Public Health,1447,3,3615,Food Establishment,Public Health Food Establishment,PUBLIC_HEALT_SAFETY_WORKS,NOT_VISIBLE,Health,Health-Food Protection-,Public Health-Food Establishment-Restaurant,Restaurant,10/28/2019,12:04 PM,10,2019,RESOL,N,10/31/2019,10.0,2019.0,3.0,"9600 NE Barry Rd64157
(39.245388, -94.460951)",Clay,39.245388,-94.460951,97633,http://city.kcmo.org/kc/ActionCenterRequest/CaseInfo.aspx?CaseID=2019185409
2830,2020021540,11300 NW Prairie View Rd,KCI & 2nd Creek,H,64153.0,North,2.0,PHONE,30436,Public Health,1447,1,9171,Hotel / Motel,Public Health Hotel / Motel,PUBLIC_HEALT_SAFETY_WORKS,NOT_VISIBLE,Health,Health-Community Environmental Health-,Public Health-Hotel / Motel-Bedbugs,Bedbugs,2/12/2020,8:32 AM,2,2020,RESOL,N,2/13/2020,2.0,2020.0,1.0,"11300 NW Prairie View Rd64153
(39.298354, -94.687207)",Platte,39.298354,-94.687207,171766,http://city.kcmo.org/kc/ActionCenterRequest/CaseInfo.aspx?CaseID=2020021540
2831,2019198375,6129 N Topping Ave,Ravenwood-Somerset,H,64119.0,Shoal Creek,1.0,PHONE,30436,Public Health,1447,1,9171,Noise,Public Health Noise,PUBLIC_HEALT_SAFETY_WORKS,VISIBLE,Health,Health-Noise Control-,Public Health-Noise-Other,Other,12/2/2019,11:43 AM,12,2019,RESOL,N,12/3/2019,12.0,2019.0,1.0,"6129 N Topping Ave64119
(39.20552, -94.511398)",Clay,39.20552,-94.511398,89413,http://city.kcmo.org/kc/ActionCenterRequest/CaseInfo.aspx?CaseID=2019198375
2832,2019209266,6242 NW Barry Rd BLD 2,Coves North,H,64154.0,North,2.0,PHONE,30436,Public Health,1447,4,2743,Food Establishment,Public Health Food Establishment,PUBLIC_HEALT_SAFETY_WORKS,NOT_VISIBLE,Health,Health-Food Protection-,Public Health-Food Establishment-Restaurant,Restaurant,12/26/2019,11:55 AM,12,2019,RESOL,N,12/30/2019,12.0,2019.0,4.0,"6242 NW Barry Rd64154
(39.248925, -94.651179)",Platte,39.248925,-94.651179,160440,http://city.kcmo.org/kc/ActionCenterRequest/CaseInfo.aspx?CaseID=2019209266
2833,2019209271,4851 Main St,South Plaza,H,64112.0,Metro,4.0,PHONE,30436,Public Health,1447,4,2743,Food Establishment,Public Health Food Establishment,PUBLIC_HEALT_SAFETY_WORKS,NOT_VISIBLE,Health,Health-Food Protection-,Public Health-Food Establishment-Restaurant,Restaurant,12/26/2019,12:03 PM,12,2019,RESOL,N,12/30/2019,12.0,2019.0,4.0,"4851 Main St64112
(39.0392, -94.586595)",Jackson,39.0392,-94.586595,215425,http://city.kcmo.org/kc/ActionCenterRequest/CaseInfo.aspx?CaseID=2019209271
2834,2019209408,8225 N Church Rd,Shoal Creek,H,64158.0,Shoal Creek,1.0,PHONE,30436,Public Health,1447,12,630,Food Establishment,Public Health Food Establishment,PUBLIC_HEALT_SAFETY_WORKS,NOT_VISIBLE,Health,Health-Food Protection-,Public Health-Food Establishment-Restaurant,Restaurant,12/26/2019,3:01 PM,12,2019,RESOL,N,1/7/2020,1.0,2020.0,12.0,"8225 N Church Rd64158
(39.241455, -94.459902)",Clay,39.241455,-94.459902,97658,http://city.kcmo.org/kc/ActionCenterRequest/CaseInfo.aspx?CaseID=2019209408
2835,2019209449,10440 NE Cookingham Dr,Shoal Creek,H,64157.0,Shoal Creek,1.0,PHONE,30436,Public Health,1447,4,2743,Food Establishment,Public Health Food Establishment,PUBLIC_HEALT_SAFETY_WORKS,NOT_VISIBLE,Health,Health-Food Protection-,Public Health-Food Establishment-Restaurant,Restaurant,12/26/2019,3:51 PM,12,2019,RESOL,N,12/30/2019,12.0,2019.0,4.0,"10440 NE Cookingham Dr64157
(39.267469, -94.44829)",Clay,39.267469,-94.44829,261454,http://city.kcmo.org/kc/ActionCenterRequest/CaseInfo.aspx?CaseID=2019209449
2836,2020024328,500 NE Barry Rd,Gashland,H,64155.0,Shoal Creek,1.0,PHONE,30436,Public Health,1447,8,1466,Food Establishment,Public Health Food Establishment,PUBLIC_HEALT_SAFETY_WORKS,NOT_VISIBLE,Health,Health-Food Protection-,Public Health-Food Establishment-Convenience/Grocery Store,Convenience / Grocery Store,2/18/2020,4:18 PM,2,2020,RESOL,N,2/26/2020,2.0,2020.0,8.0,"500 NE Barry Rd64155
(39.248619, -94.572868)",Clay,39.248619,-94.572868,256512,http://city.kcmo.org/kc/ActionCenterRequest/CaseInfo.aspx?CaseID=2020024328
2837,2020024331,1046 W 103rd St,Lea Manor,H,64114.0,South,6.0,PHONE,30436,Public Health,1447,6,2053,Food Establishment,Public Health Food Establishment,PUBLIC_HEALT_SAFETY_WORKS,NOT_VISIBLE,Health,Health-Food Protection-,Public Health-Food Establishment-Restaurant,Restaurant,2/18/2020,4:19 PM,2,2020,RESOL,N,2/24/2020,2.0,2020.0,6.0,"1046 W 103rd St64114
(38.94341, -94.605422)",Jackson,38.94341,-94.605422,153076,http://city.kcmo.org/kc/ActionCenterRequest/CaseInfo.aspx?CaseID=2020024331
2838,2020011452,3946 NE Prather Rd,River Forest,H,64116.0,Shoal Creek,1.0,PHONE,30436,Public Health,1447,11,721,Services,Public Health Services,PUBLIC_HEALT_SAFETY_WORKS,NOT_VISIBLE,Health,Health-Healthy Homes-,Public Health-Services-Healthy Homes Information,Healthy Homes Information,1/24/2020,4:34 PM,1,2020,RESOL,Y,2/4/2020,2.0,2020.0,11.0,"3946 NE Prather Rd64116
(39.166201, -94.554201)",Clay,39.166201,-94.554201,85534,http://city.kcmo.org/kc/ActionCenterRequest/CaseInfo.aspx?CaseID=2020011452
2839,2020011514,6530 A NW Barry Rd,Coves North,H,64154.0,North,2.0,WEB,13543,Public Health,1447,5,2293,Food Establishment,Public Health Food Establishment,PUBLIC_HEALT_SAFETY_WORKS,NOT_VISIBLE,Health,Health-Food Protection-,Public Health-Food Establishment-Restaurant,Restaurant,1/24/2020,6:05 PM,1,2020,RESOL,N,1/29/2020,1.0,2020.0,5.0,"6530 A NW Barry Rd64154
(39.24747, -94.656056)",Platte,39.24747,-94.656056,160430,http://city.kcmo.org/kc/ActionCenterRequest/CaseInfo.aspx?CaseID=2020011514
2840,2020024288,1046 W 103rd St,Lea Manor,H,64114.0,South,6.0,PHONE,30436,Public Health,1447,6,2053,Food Establishment,Public Health Food Establishment,PUBLIC_HEALT_SAFETY_WORKS,NOT_VISIBLE,Health,Health-Food Protection-,Public Health-Food Establishment-Restaurant,Restaurant,2/18/2020,3:46 PM,2,2020,RESOL,N,2/24/2020,2.0,2020.0,6.0,"1046 W 103rd St64114
(38.94341, -94.605422)",Jackson,38.94341,-94.605422,153076,http://city.kcmo.org/kc/ActionCenterRequest/CaseInfo.aspx?CaseID=2020024288
2841,2020024323,600 NE Barry Rd,Gashland,H,64155.0,Shoal Creek,1.0,PHONE,30436,Public Health,1447,0,4266,Food Establishment,Public Health Food Establishment,PUBLIC_HEALT_SAFETY_WORKS,NOT_VISIBLE,Health,Health-Food Protection-,Public Health-Food Establishment-Convenience/Grocery Store,Convenience / Grocery Store,2/18/2020,4:15 PM,2,2020,RESOL,N,2/18/2020,2.0,2020.0,0.0,"600 NE Barry Rd64155
(39.247138, -94.572635)",Clay,39.247138,-94.572635,256511,http://city.kcmo.org/kc/ActionCenterRequest/CaseInfo.aspx?CaseID=2020024323
2842,2020006787,5179 NW 85th St,Coves North,H,64154.0,North,2.0,PHONE,30436,Public Health,1447,180,2874,Services,Public Health Services,PUBLIC_HEALT_SAFETY_WORKS,NOT_VISIBLE,Health,Health-Healthy Homes-,Public Health-Services-Healthy Homes Information,Healthy Homes Information,1/15/2020,5:19 PM,1,2020,OPEN,N,,,,,"5179 NW 85th St64154
(39.248657, -94.638354)",Platte,39.248657,-94.638354,161143,http://city.kcmo.org/kc/ActionCenterRequest/CaseInfo.aspx?CaseID=2020006787
2843,2020017402,700 E Red Bridge Rd,Red Bridge North,H,64131.0,South,6.0,PHONE,30436,Public Health,1447,7,1826,Food Establishment,Public Health Food Establishment,PUBLIC_HEALT_SAFETY_WORKS,NOT_VISIBLE,Health,Health-Food Protection-,Public Health-Food Establishment-Restaurant,Restaurant,2/4/2020,1:30 PM,2,2020,RESOL,N,2/11/2020,2.0,2020.0,7.0,"700 E Red Bridge Rd64131
(38.926151, -94.582745)",Jackson,38.926151,-94.582745,154888,http://city.kcmo.org/kc/ActionCenterRequest/CaseInfo.aspx?CaseID=2020017402
2844,2019199318,801 W 56th St,Ward Estates,H,64113.0,Metro,4.0,EMAIL,4068,Public Health,1447,0,4266,Noise,Public Health Noise,PUBLIC_HEALT_SAFETY_WORKS,VISIBLE,Health,Health-Noise Control-,Public Health-Noise-Other,Other,12/3/2019,6:18 PM,12,2019,RESOL,N,12/3/2019,12.0,2019.0,0.0,"801 W 56th St64113
(39.026318, -94.597579)",Jackson,39.026318,-94.597579,143020,http://city.kcmo.org/kc/ActionCenterRequest/CaseInfo.aspx?CaseID=2019199318
2845,2019185746,5609 NW 86th Ter,Coves North,H,64154.0,North,2.0,WEB,13543,Public Health,1447,2,4179,Noise,Public Health Noise,PUBLIC_HEALT_SAFETY_WORKS,VISIBLE,Health,Health-Noise Control-,Public Health-Noise-Other,Other,10/28/2019,8:48 PM,10,2019,RESOL,N,10/30/2019,10.0,2019.0,2.0,"5609 NW 86th Ter64154
(39.252314, -94.647273)",Platte,39.252314,-94.647273,160261,http://city.kcmo.org/kc/ActionCenterRequest/CaseInfo.aspx?CaseID=2019185746
2846,2019185219,3618 N Euclid Ave,River Forest,H,64116.0,Shoal Creek,1.0,PHONE,30436,Public Health,1447,3,3615,Services,Public Health Services,PUBLIC_HEALT_SAFETY_WORKS,NOT_VISIBLE,Health,Health-Healthy Homes-,Public Health-Services-Healthy Homes Information,Healthy Homes Information,10/28/2019,8:39 AM,10,2019,RESOL,N,10/31/2019,10.0,2019.0,3.0,"3618 N Euclid Ave64116
(39.160032, -94.556968)",Clay,39.160032,-94.556968,85621,http://city.kcmo.org/kc/ActionCenterRequest/CaseInfo.aspx?CaseID=2019185219
2847,2020017395,11130 N Ambassador Dr,KCI & 2nd Creek,H,64153.0,North,2.0,PHONE,30436,Public Health,1447,3,3615,Food Establishment,Public Health Food Establishment,PUBLIC_HEALT_SAFETY_WORKS,NOT_VISIBLE,Health,Health-Food Protection-,Public Health-Food Establishment-Restaurant,Restaurant,2/4/2020,1:25 PM,2,2020,RESOL,N,2/7/2020,2.0,2020.0,3.0,"11130 N Ambassador Dr64153
(39.293845, -94.682662)",Platte,39.29384500000001,-94.682662,171862,http://city.kcmo.org/kc/ActionCenterRequest/CaseInfo.aspx?CaseID=2020017395
2848,2019163855,9101 N Ambassador Dr,Coves North,H,64154.0,North,2.0,PHONE,30436,Public Health,1447,7,1826,Food Establishment,Public Health Food Establishment,PUBLIC_HEALT_SAFETY_WORKS,NOT_VISIBLE,Health,Health-Food Protection-,Public Health-Food Establishment-Restaurant,Restaurant,9/10/2019,3:04 PM,9,2019,RESOL,N,9/17/2019,9.0,2019.0,7.0,"9101 N Ambassador Dr64154
(39.259391, -94.648228)",Platte,39.259391,-94.648228,261405,http://city.kcmo.org/kc/ActionCenterRequest/CaseInfo.aspx?CaseID=2019163855
2849,2019178296,10443 N Potter Ave,Shoal Creek,H,64157.0,Shoal Creek,1.0,WEB,13543,Public Health,1447,4,2743,Outdoor Air Quality,Public Health Outdoor Air Quality,PUBLIC_HEALT_SAFETY_WORKS,VISIBLE,Health,Health-Air Quality-,Public Health-Outdoor Air Quality-All,All,10/10/2019,1:29 PM,10,2019,RESOL,N,10/14/2019,10.0,2019.0,4.0,"10443 N Potter Ave64157
(39.282511, -94.483248)",Clay,39.282511,-94.483248,228784,http://city.kcmo.org/kc/ActionCenterRequest/CaseInfo.aspx?CaseID=2019178296
2850,2019167841,11130 N Ambassador Dr,KCI & 2nd Creek,H,64153.0,North,2.0,PHONE,30436,Public Health,1447,5,2293,Food Establishment,Public Health Food Establishment,PUBLIC_HEALT_SAFETY_WORKS,NOT_VISIBLE,Health,Health-Food Protection-,Public Health-Food Establishment-Restaurant,Restaurant,9/18/2019,10:50 AM,9,2019,RESOL,N,9/23/2019,9.0,2019.0,5.0,"11130 N Ambassador Dr64153
(39.293845, -94.682662)",Platte,39.29384500000001,-94.682662,171862,http://city.kcmo.org/kc/ActionCenterRequest/CaseInfo.aspx?CaseID=2019167841
2851,2019168098,8840 N Seymour Ave BLD 21,Prairie Point-Wildberry,H,64153.0,North,2.0,PHONE,30436,Public Health,1447,21,417,Services,Public Health Services,PUBLIC_HEALT_SAFETY_WORKS,NOT_VISIBLE,Health,Health-Healthy Homes-,Public Health-Services-Healthy Homes Information,Healthy Homes Information,9/18/2019,3:17 PM,9,2019,RESOL,Y,10/9/2019,10.0,2019.0,21.0,"8840 N Seymour Ave64153
(39.256018, -94.671186)",Platte,39.256018,-94.671186,247399,http://city.kcmo.org/kc/ActionCenterRequest/CaseInfo.aspx?CaseID=2019168098
2852,2019185072,6142 Harrison St,Western 49-63,H,64110.0,Metro,6.0,WEB,13543,Public Health,1447,2,4179,Noise,Public Health Noise,PUBLIC_HEALT_SAFETY_WORKS,VISIBLE,Health,Health-Noise Control-,Public Health-Noise-Other,Other,10/26/2019,12:44 AM,10,2019,RESOL,N,10/28/2019,10.0,2019.0,2.0,"6142 Harrison St64110
(39.015177, -94.575954)",Jackson,39.015177,-94.575954,106355,http://city.kcmo.org/kc/ActionCenterRequest/CaseInfo.aspx?CaseID=2019185072
2853,2019185073,4801 Main St,South Plaza,H,64112.0,Metro,4.0,WEB,13543,Public Health,1447,6,2053,Food Establishment,Public Health Food Establishment,PUBLIC_HEALT_SAFETY_WORKS,NOT_VISIBLE,Health,Health-Food Protection-,Public Health-Food Establishment-Other,Other,10/26/2019,1:39 AM,10,2019,RESOL,N,11/1/2019,11.0,2019.0,6.0,"4801 Main St64112
(39.0392, -94.586595)",Jackson,39.0392,-94.586595,215425,http://city.kcmo.org/kc/ActionCenterRequest/CaseInfo.aspx?CaseID=2019185073
2854,2019162382,1520 E 97th St,Coves North,H,64154.0,North,2.0,PHONE,30436,Public Health,1447,4,2743,Services,Public Health Services,PUBLIC_HEALT_SAFETY_WORKS,NOT_VISIBLE,Health,Health-Healthy Homes-,Public Health-Services-Healthy Homes Information,Healthy Homes Information,9/6/2019,4:49 PM,9,2019,RESOL,N,9/10/2019,9.0,2019.0,4.0,"1520 E 97th St64154
(39.256711, -94.615439)",Platte,39.256711,-94.615439,217208,http://city.kcmo.org/kc/ActionCenterRequest/CaseInfo.aspx?CaseID=2019162382
2855,2019161866,11418 N Ditzler Ave,Shoal Creek,H,64157.0,Shoal Creek,1.0,PHONE,30436,Public Health,1447,0,4266,Noise,Public Health Noise,PUBLIC_HEALT_SAFETY_WORKS,VISIBLE,Health,Health-Noise Control-,Public Health-Noise-Other,Other,9/6/2019,7:16 AM,9,2019,RESOL,N,9/6/2019,9.0,2019.0,0.0,"11418 N Ditzler Ave64157
(39.299924, -94.465711)",Clay,39.299924,-94.465711,222299,http://city.kcmo.org/kc/ActionCenterRequest/CaseInfo.aspx?CaseID=2019161866
2856,2019202579,8400 N Overland Ct,Coves North,H,64154.0,North,2.0,PHONE,30436,Public Health,1447,5,2293,Services,Public Health Services,PUBLIC_HEALT_SAFETY_WORKS,NOT_VISIBLE,Health,Health-Healthy Homes-,Public Health-Services-Healthy Homes Information,Healthy Homes Information,12/11/2019,2:48 PM,12,2019,RESOL,N,12/16/2019,12.0,2019.0,5.0,"8400 N Overland Ct64154
(39.247437, -94.638856)",Platte,39.247437,-94.638856,161142,http://city.kcmo.org/kc/ActionCenterRequest/CaseInfo.aspx?CaseID=2019202579
2857,2019203468,409 W Gregory Blvd,Ward Parkway,H,64114.0,Metro,6.0,PHONE,30436,Public Health,1447,11,721,Food Establishment,Public Health Food Establishment,PUBLIC_HEALT_SAFETY_WORKS,NOT_VISIBLE,Health,Health-Food Protection-,Public Health-Food Establishment-Restaurant,Restaurant,12/13/2019,11:40 AM,12,2019,RESOL,N,12/24/2019,12.0,2019.0,11.0,"409 W Gregory Blvd64114
(38.999149, -94.594223)",Jackson,38.999149,-94.594223,110512,http://city.kcmo.org/kc/ActionCenterRequest/CaseInfo.aspx?CaseID=2019203468
2858,2020003279,5635 Rockhill Rd,Western 49-63,H,64110.0,Metro,4.0,PHONE,30436,Public Health,1447,1,9171,Services,Public Health Services,PUBLIC_HEALT_SAFETY_WORKS,NOT_VISIBLE,Health,Health-Healthy Homes-,Public Health-Services-Healthy Homes Information,Healthy Homes Information,1/8/2020,1:58 PM,1,2020,RESOL,N,1/9/2020,1.0,2020.0,1.0,"5635 Rockhill Rd64110
(39.024209, -94.575924)",Jackson,39.024209,-94.575924,144556,http://city.kcmo.org/kc/ActionCenterRequest/CaseInfo.aspx?CaseID=2020003279
2859,2020016208,5828 Oak St,Brookside Park,H,64113.0,Metro,4.0,WEB,13543,Public Health,1447,2,4179,Noise,Public Health Noise,PUBLIC_HEALT_SAFETY_WORKS,VISIBLE,Health,Health-Noise Control-,Public Health-Noise-Music,Music,2/1/2020,6:19 PM,2,2020,RESOL,N,2/3/2020,2.0,2020.0,2.0,"5828 Oak St64113
(39.020987, -94.583796)",Jackson,39.020987,-94.583796,144387,http://city.kcmo.org/kc/ActionCenterRequest/CaseInfo.aspx?CaseID=2020016208
2860,2020003355,9851 NE Barry Rd,Shoal Creek,H,64158.0,Shoal Creek,1.0,PHONE,30436,Public Health,1447,6,2053,Food Establishment,Public Health Food Establishment,PUBLIC_HEALT_SAFETY_WORKS,NOT_VISIBLE,Health,Health-Food Protection-,Public Health-Food Establishment-Restaurant,Restaurant,1/8/2020,3:33 PM,1,2020,RESOL,N,1/14/2020,1.0,2020.0,6.0,"9851 NE Barry Rd64158
(39.24403, -94.462487)",Clay,39.24403,-94.462487,97661,http://city.kcmo.org/kc/ActionCenterRequest/CaseInfo.aspx?CaseID=2020003355
2861,2019207756,7301 NE 108th St,Shoal Creek,H,64156.0,Shoal Creek,1.0,WEB,13543,Public Health,1447,19,445,Food Establishment,Public Health Food Establishment,PUBLIC_HEALT_SAFETY_WORKS,NOT_VISIBLE,Health,Health-Food Protection-,Public Health-Food Establishment-Education / Health,Education / Health,12/20/2019,3:53 PM,12,2019,RESOL,Y,1/8/2020,1.0,2020.0,19.0,"7301 NE 108th St64156
(39.286263, -94.494986)",Clay,39.286263,-94.494986,262765,http://city.kcmo.org/kc/ActionCenterRequest/CaseInfo.aspx?CaseID=2019207756
2862,2019207606,5301 NW 72nd St,Park Plaza,H,64151.0,North,2.0,PHONE,30436,Public Health,1447,4,2743,Services,Public Health Services,PUBLIC_HEALT_SAFETY_WORKS,NOT_VISIBLE,Health,Health-Healthy Homes-,Public Health-Services-Healthy Homes Information,Healthy Homes Information,12/20/2019,12:22 PM,12,2019,RESOL,N,12/24/2019,12.0,2019.0,4.0,"5301 NW 72nd St64151
(39.224609, -94.641753)",Platte,39.224609,-94.641753,162895,http://city.kcmo.org/kc/ActionCenterRequest/CaseInfo.aspx?CaseID=2019207606
2863,2019169664,4211 NW 62nd St,Breen Hills,H,64151.0,North,2.0,PHONE,30436,Public Health,1447,16,412,Services,Public Health Services,PUBLIC_HEALT_SAFETY_WORKS,NOT_VISIBLE,Health,Health-Healthy Homes-,Public Health-Services-Healthy Homes Information,Healthy Homes Information,9/23/2019,8:53 AM,9,2019,RESOL,Y,10/9/2019,10.0,2019.0,16.0,"4211 NW 62nd St64151
(39.206721, -94.629189)",Platte,39.206721,-94.629189,165954,http://city.kcmo.org/kc/ActionCenterRequest/CaseInfo.aspx?CaseID=2019169664
2864,2019165202,235 Ward Pkwy,South Plaza,H,64112.0,Metro,4.0,PHONE,30436,Public Health,1447,27,409,Services,Public Health Services,PUBLIC_HEALT_SAFETY_WORKS,NOT_VISIBLE,Health,Health-Healthy Homes-,Public Health-Services-Healthy Homes Information,Healthy Homes Information,9/12/2019,3:48 PM,9,2019,RESOL,Y,10/9/2019,10.0,2019.0,27.0,"235 Ward Pkwy64112
(39.039743, -94.590316)",Jackson,39.039743,-94.590316,140002,http://city.kcmo.org/kc/ActionCenterRequest/CaseInfo.aspx?CaseID=2019165202
2865,2019163851,9101 N Ambassador Dr,Coves North,H,64154.0,North,2.0,PHONE,30436,Public Health,1447,7,1826,Food Establishment,Public Health Food Establishment,PUBLIC_HEALT_SAFETY_WORKS,NOT_VISIBLE,Health,Health-Food Protection-,Public Health-Food Establishment-Restaurant,Restaurant,9/10/2019,3:02 PM,9,2019,RESOL,N,9/17/2019,9.0,2019.0,7.0,"9101 N Ambassador Dr64154
(39.259391, -94.648228)",Platte,39.259391,-94.648228,261405,http://city.kcmo.org/kc/ActionCenterRequest/CaseInfo.aspx?CaseID=2019163851
2866,2019163619,1227 W 103rd St,Lea Manor,H,64114.0,South,6.0,PHONE,30436,Public Health,1447,3,3615,Food Establishment,Public Health Food Establishment,PUBLIC_HEALT_SAFETY_WORKS,NOT_VISIBLE,Health,Health-Food Protection-,Public Health-Food Establishment-Restaurant,Restaurant,9/10/2019,11:13 AM,9,2019,RESOL,N,9/13/2019,9.0,2019.0,3.0,"1227 W 103rd St64114
(38.941409, -94.606153)",Jackson,38.941409,-94.606153,153185,http://city.kcmo.org/kc/ActionCenterRequest/CaseInfo.aspx?CaseID=2019163619
2867,2020003424,7240 Wornall Rd,Ward Parkway,H,64114.0,Metro,6.0,PHONE,30436,Public Health,1447,1,9171,Noise,Public Health Noise,PUBLIC_HEALT_SAFETY_WORKS,VISIBLE,Health,Health-Noise Control-,Public Health-Noise-Trash Truck,Trash Truck,1/8/2020,4:56 PM,1,2020,RESOL,N,1/9/2020,1.0,2020.0,1.0,"7240 Wornall Rd64114
(38.996176, -94.594376)",Jackson,38.996176,-94.594376,110650,http://city.kcmo.org/kc/ActionCenterRequest/CaseInfo.aspx?CaseID=2020003424
2868,2019194850,8700 N Flintlock Rd,Shoal Creek,H,64157.0,Shoal Creek,1.0,EMAIL,4068,Public Health,1447,2,4179,Food Establishment,Public Health Food Establishment,PUBLIC_HEALT_SAFETY_WORKS,NOT_VISIBLE,Health,Health-Food Protection-,Public Health-Food Establishment-Restaurant,Restaurant,11/20/2019,2:03 PM,11,2019,RESOL,N,11/22/2019,11.0,2019.0,2.0,"8700 N Flintlock Rd64157
(39.24778, -94.465863)",Clay,39.24778,-94.465863,254455,http://city.kcmo.org/kc/ActionCenterRequest/CaseInfo.aspx?CaseID=2019194850
2869,2019179662,9800 NW Prairie View Rd,KCI & 2nd Creek,H,64153.0,North,2.0,PHONE,30436,Public Health,1447,3,3615,Food Establishment,Public Health Food Establishment,PUBLIC_HEALT_SAFETY_WORKS,NOT_VISIBLE,Health,Health-Food Protection-,Public Health-Food Establishment-Restaurant,Restaurant,10/14/2019,5:21 PM,10,2019,RESOL,N,10/17/2019,10.0,2019.0,3.0,"9800 NW Prairie View Rd64153
(39.274145, -94.672281)",Platte,39.274145,-94.672281,252629,http://city.kcmo.org/kc/ActionCenterRequest/CaseInfo.aspx?CaseID=2019179662
2870,2019194599,10708 E 98th Ter 3B,Highview Estates,H,64134.0,South,5.0,PHONE,30436,Public Health,1447,6,2053,Services,Public Health Services,PUBLIC_HEALT_SAFETY_WORKS,NOT_VISIBLE,Health,Health-Healthy Homes-,Public Health-Services-Healthy Homes Information,Healthy Homes Information,11/20/2019,9:56 AM,11,2019,RESOL,N,11/26/2019,11.0,2019.0,6.0,"10708 E 98th Ter64134
(38.943977, -94.459141)",Jackson,38.943977,-94.459141,67934,http://city.kcmo.org/kc/ActionCenterRequest/CaseInfo.aspx?CaseID=2019194599
2871,2019192478,6320 N Camden Ave 10,Breen Hills,H,64151.0,North,2.0,PHONE,30436,Public Health,1447,12,630,Services,Public Health Services,PUBLIC_HEALT_SAFETY_WORKS,NOT_VISIBLE,Health,Health-Healthy Homes-,Public Health-Services-Healthy Homes Information,Healthy Homes Information,11/14/2019,11:38 AM,11,2019,RESOL,Y,11/26/2019,11.0,2019.0,12.0,"6320 N Camden Ave64151
(39.209578, -94.634628)",Platte,39.209578,-94.634628,166048,http://city.kcmo.org/kc/ActionCenterRequest/CaseInfo.aspx?CaseID=2019192478
2872,2019197606,4000 N Oak Trfy,Briarcliff And Claymont,H,64116.0,North,4.0,PHONE,30436,Public Health,1447,5,2293,Food Establishment,Public Health Food Establishment,PUBLIC_HEALT_SAFETY_WORKS,NOT_VISIBLE,Health,Health-Food Protection-,Public Health-Food Establishment-Restaurant,Restaurant,11/27/2019,8:31 AM,11,2019,RESOL,N,12/2/2019,12.0,2019.0,5.0,"4000 N Oak Trfy64116
(39.16698, -94.57722)",Clay,39.16698,-94.57722,84245,http://city.kcmo.org/kc/ActionCenterRequest/CaseInfo.aspx?CaseID=2019197606
2873,2019197602,3907 N Main St,Briarcliff And Claymont,H,64116.0,North,4.0,PHONE,30436,Public Health,1447,5,2293,Food Establishment,Public Health Food Establishment,PUBLIC_HEALT_SAFETY_WORKS,NOT_VISIBLE,Health,Health-Food Protection-,Public Health-Food Establishment-Restaurant,Restaurant,11/27/2019,8:30 AM,11,2019,RESOL,N,12/2/2019,12.0,2019.0,5.0,"3907 N Main St64116
(39.165577, -94.580992)",Clay,39.165577,-94.580992,85216,http://city.kcmo.org/kc/ActionCenterRequest/CaseInfo.aspx?CaseID=2019197602
2874,2019186806,5301 Holmes St,Western 49-63,H,64110.0,Metro,4.0,WEB,13543,Public Health,1447,33,224,Services,Public Health Services,PUBLIC_HEALT_SAFETY_WORKS,NOT_VISIBLE,Health,Health-Healthy Homes-,Public Health-Services-Healthy Homes Information,Healthy Homes Information,10/30/2019,2:06 PM,10,2019,RESOL,Y,12/2/2019,12.0,2019.0,33.0,"5301 Holmes St64110
(39.03081, -94.57789)",Jackson,39.03081,-94.57789,143433,http://city.kcmo.org/kc/ActionCenterRequest/CaseInfo.aspx?CaseID=2019186806
2875,2019166143,14530 E Bannister Rd CARPORT 4,Unity Ridge,H,64139.0,South,5.0,WEB,13543,Public Health,1447,1,9171,Noise,Public Health Noise,PUBLIC_HEALT_SAFETY_WORKS,VISIBLE,Health,Health-Noise Control-,Public Health-Noise-Music,Music,9/15/2019,2:51 AM,9,2019,RESOL,N,9/16/2019,9.0,2019.0,1.0,"14530 E Bannister Rd64139
(38.945384, -94.411572)",Jackson,38.945384,-94.411572,256822,http://city.kcmo.org/kc/ActionCenterRequest/CaseInfo.aspx?CaseID=2019166143
2876,2019197733,13003 State Line Rd,Blue Hills Estates,H,64145.0,South,6.0,PHONE,30436,Public Health,1447,7,1826,Food Establishment,Public Health Food Establishment,PUBLIC_HEALT_SAFETY_WORKS,NOT_VISIBLE,Health,Health-Food Protection-,Public Health-Food Establishment-Restaurant,Restaurant,11/27/2019,11:31 AM,11,2019,RESOL,N,12/4/2019,12.0,2019.0,7.0,"13003 State Line Rd64145
(38.892448, -94.607471)",Jackson,38.892448,-94.607471,248984,http://city.kcmo.org/kc/ActionCenterRequest/CaseInfo.aspx?CaseID=2019197733
2877,2020001264,9800 NW Prairie View Rd,KCI & 2nd Creek,H,64153.0,North,2.0,PHONE,30436,Public Health,1447,5,2293,Food Establishment,Public Health Food Establishment,PUBLIC_HEALT_SAFETY_WORKS,NOT_VISIBLE,Health,Health-Food Protection-,Public Health-Food Establishment-Restaurant,Restaurant,1/3/2020,3:22 PM,1,2020,RESOL,N,1/8/2020,1.0,2020.0,5.0,"9800 NW Prairie View Rd64153
(39.274145, -94.672281)",Platte,39.274145,-94.672281,252629,http://city.kcmo.org/kc/ActionCenterRequest/CaseInfo.aspx?CaseID=2020001264
2878,2019193385,8320 N Church Rd,Shoal Creek,H,64158.0,Shoal Creek,1.0,WEB,13543,Public Health,1447,5,2293,Food Establishment,Public Health Food Establishment,PUBLIC_HEALT_SAFETY_WORKS,NOT_VISIBLE,Health,Health-Food Protection-,Public Health-Food Establishment-Restaurant,Restaurant,11/17/2019,6:16 PM,11,2019,RESOL,N,11/22/2019,11.0,2019.0,5.0,"8320 N Church Rd64158
(39.242453, -94.46243)",Clay,39.24245300000001,-94.46243,97667,http://city.kcmo.org/kc/ActionCenterRequest/CaseInfo.aspx?CaseID=2019193385
2879,2019206640,7502 N Avalon St,Park Forest,H,64152.0,North,2.0,PHONE,30436,Public Health,1447,5,2293,Noise,Public Health Noise,PUBLIC_HEALT_SAFETY_WORKS,VISIBLE,Health,Health-Noise Control-,Public Health-Noise-Other,Other,12/19/2019,9:47 AM,12,2019,RESOL,N,12/24/2019,12.0,2019.0,5.0,"7502 N Avalon St64152
(39.231523, -94.660295)",Platte,39.231523,-94.660295,170381,http://city.kcmo.org/kc/ActionCenterRequest/CaseInfo.aspx?CaseID=2019206640
2880,2019200343,6227 Brookside Plz,Morningside,H,64113.0,Metro,6.0,PHONE,30436,Public Health,1447,1,9171,Food Establishment,Public Health Food Establishment,PUBLIC_HEALT_SAFETY_WORKS,NOT_VISIBLE,Health,Health-Food Protection-,Public Health-Food Establishment-Restaurant,Restaurant,12/5/2019,3:32 PM,12,2019,RESOL,N,12/6/2019,12.0,2019.0,1.0,"6227 Brookside Plz64113
(39.014424, -94.589893)",Jackson,39.014424,-94.589893,106807,http://city.kcmo.org/kc/ActionCenterRequest/CaseInfo.aspx?CaseID=2019200343
2881,2020000531,550 E 105th St,Bridlespur,H,64131.0,South,6.0,PHONE,30436,Public Health,1447,13,635,Hotel / Motel,Public Health Hotel / Motel,PUBLIC_HEALT_SAFETY_WORKS,NOT_VISIBLE,Health,Health-Community Environmental Health-,Public Health-Hotel / Motel-Bedbugs,Bedbugs,1/2/2020,1:45 PM,1,2020,RESOL,Y,1/15/2020,1.0,2020.0,13.0,"550 E 105th St64131
(38.938977, -94.585473)",Jackson,38.938977,-94.585473,153962,http://city.kcmo.org/kc/ActionCenterRequest/CaseInfo.aspx?CaseID=2020000531
2882,2019188274,8545 N Oak Trfy,Gashland,H,64155.0,Shoal Creek,1.0,PHONE,30436,Public Health,1447,2,4179,Food Establishment,Public Health Food Establishment,PUBLIC_HEALT_SAFETY_WORKS,NOT_VISIBLE,Health,Health-Food Protection-,Public Health-Food Establishment-Restaurant,Restaurant,11/4/2019,9:19 AM,11,2019,RESOL,N,11/6/2019,11.0,2019.0,2.0,"8545 N Oak Trfy64155
(39.248886, -94.575379)",Clay,39.248886,-94.575379,92773,http://city.kcmo.org/kc/ActionCenterRequest/CaseInfo.aspx?CaseID=2019188274
2883,2019193743,9327 NE 79th St,Shoal Creek,H,64158.0,Shoal Creek,1.0,PHONE,30436,Public Health,1447,8,1466,Services,Public Health Services,PUBLIC_HEALT_SAFETY_WORKS,NOT_VISIBLE,Health,Health-Healthy Homes-,Public Health-Services-Healthy Homes Information,Healthy Homes Information,11/18/2019,3:28 PM,11,2019,RESOL,Y,11/26/2019,11.0,2019.0,8.0,"9327 NE 79th St64158
(39.235766, -94.46779)",Clay,39.235766,-94.46779,238199,http://city.kcmo.org/kc/ActionCenterRequest/CaseInfo.aspx?CaseID=2019193743
2884,2019168530,4851 Main St,South Plaza,H,64112.0,Metro,4.0,PHONE,30436,Public Health,1447,4,2743,Food Establishment,Public Health Food Establishment,PUBLIC_HEALT_SAFETY_WORKS,NOT_VISIBLE,Health,Health-Food Protection-,Public Health-Food Establishment-Restaurant,Restaurant,9/19/2019,12:20 PM,9,2019,RESOL,N,9/23/2019,9.0,2019.0,4.0,"4851 Main St64112
(39.0392, -94.586595)",Jackson,39.0392,-94.586595,215425,http://city.kcmo.org/kc/ActionCenterRequest/CaseInfo.aspx?CaseID=2019168530
2885,2019203191,8320 N Church Rd,Shoal Creek,H,64158.0,Shoal Creek,1.0,PHONE,30436,Public Health,1447,0,4266,Food Establishment,Public Health Food Establishment,PUBLIC_HEALT_SAFETY_WORKS,NOT_VISIBLE,Health,Health-Food Protection-,Public Health-Food Establishment-Restaurant,Restaurant,12/12/2019,4:30 PM,12,2019,RESOL,N,12/12/2019,12.0,2019.0,0.0,"8320 N Church Rd64158
(39.242453, -94.46243)",Clay,39.24245300000001,-94.46243,97667,http://city.kcmo.org/kc/ActionCenterRequest/CaseInfo.aspx?CaseID=2019203191
2886,2019193543,4924 NW Barry Rd,Coves North,H,64154.0,North,2.0,PHONE,30436,Public Health,1447,8,1466,Services,Public Health Services,PUBLIC_HEALT_SAFETY_WORKS,NOT_VISIBLE,Health,Health-Healthy Homes-,Public Health-Services-Healthy Homes Information,Healthy Homes Information,11/18/2019,10:56 AM,11,2019,RESOL,Y,11/26/2019,11.0,2019.0,8.0,"4924 NW Barry Rd64154
(39.246846, -94.638156)",Platte,39.24684600000001,-94.638156,161113,http://city.kcmo.org/kc/ActionCenterRequest/CaseInfo.aspx?CaseID=2019193543
2887,2019193604,10601 E 98th Ter,Highview Estates,H,64134.0,South,5.0,PHONE,30436,Public Health,1447,8,1466,Services,Public Health Services,PUBLIC_HEALT_SAFETY_WORKS,NOT_VISIBLE,Health,Health-Healthy Homes-,Public Health-Services-Healthy Homes Information,Healthy Homes Information,11/18/2019,12:20 PM,11,2019,RESOL,Y,11/26/2019,11.0,2019.0,8.0,"10601 E 98th Ter64134
(38.941952, -94.459526)",Jackson,38.941952,-94.459526,67935,http://city.kcmo.org/kc/ActionCenterRequest/CaseInfo.aspx?CaseID=2019193604
2888,2019193862,6420 NW Barry Rd,Coves North,H,64154.0,North,2.0,PHONE,30436,Public Health,1447,1,9171,Food Establishment,Public Health Food Establishment,PUBLIC_HEALT_SAFETY_WORKS,NOT_VISIBLE,Health,Health-Food Protection-,Public Health-Food Establishment-Restaurant,Restaurant,11/18/2019,6:25 PM,11,2019,RESOL,N,11/19/2019,11.0,2019.0,1.0,"6420 NW Barry Rd64154
(39.247551, -94.654502)",Platte,39.247551,-94.654502,160431,http://city.kcmo.org/kc/ActionCenterRequest/CaseInfo.aspx?CaseID=2019193862
2889,2019190085,5322 Harrison St,Western 49-63,H,64110.0,Metro,4.0,PHONE,30436,Public Health,1447,19,445,Services,Public Health Services,PUBLIC_HEALT_SAFETY_WORKS,NOT_VISIBLE,Health,Health-Healthy Homes-,Public Health-Services-Healthy Homes Information,Healthy Homes Information,11/7/2019,9:39 AM,11,2019,RESOL,Y,11/26/2019,11.0,2019.0,19.0,"5322 Harrison St64110
(39.030019, -94.575115)",Jackson,39.030019,-94.575115,143505,http://city.kcmo.org/kc/ActionCenterRequest/CaseInfo.aspx?CaseID=2019190085
2890,2020028948,7424 N Rhode Ave,Park Forest,H,64152.0,North,2.0,WEB,13543,Public Health,1447,13,635,Food Establishment,Public Health Food Establishment,PUBLIC_HEALT_SAFETY_WORKS,NOT_VISIBLE,Health,Health-Food Protection-,Public Health-Food Establishment-Other,Other,2/26/2020,12:34 PM,2,2020,RESOL,Y,3/10/2020,3.0,2020.0,13.0,"7424 N Rhode Ave64152
(39.229827, -94.671475)",Platte,39.229827,-94.671475,170205,http://city.kcmo.org/kc/ActionCenterRequest/CaseInfo.aspx?CaseID=2020028948
2891,2019159539,7612 NW 69th Ter,Royal Oaks North,H,64152.0,North,2.0,WEB,13543,Public Health,1447,2,4179,Noise,Public Health Noise,PUBLIC_HEALT_SAFETY_WORKS,VISIBLE,Health,Health-Noise Control-,Public Health-Noise-Music,Music,9/1/2019,3:18 PM,9,2019,RESOL,N,9/3/2019,9.0,2019.0,2.0,"7612 NW 69th Ter64152
(39.220849, -94.66959)",Platte,39.220849,-94.66959,171233,http://city.kcmo.org/kc/ActionCenterRequest/CaseInfo.aspx?CaseID=2019159539
2892,2019159528,8320 N Church Rd,Shoal Creek,H,64158.0,Shoal Creek,1.0,WEB,13543,Public Health,1447,4,2743,Food Establishment,Public Health Food Establishment,PUBLIC_HEALT_SAFETY_WORKS,NOT_VISIBLE,Health,Health-Food Protection-,Public Health-Food Establishment-Restaurant,Restaurant,9/1/2019,12:37 PM,9,2019,RESOL,N,9/5/2019,9.0,2019.0,4.0,"8320 N Church Rd64158
(39.242453, -94.46243)",Clay,39.24245300000001,-94.46243,97667,http://city.kcmo.org/kc/ActionCenterRequest/CaseInfo.aspx?CaseID=2019159528
2893,2019192769,7813 State Line Rd,Ward Parkway,H,64114.0,Metro,6.0,WEB,13543,Public Health,1447,1,9171,Outdoor Air Quality,Public Health Outdoor Air Quality,PUBLIC_HEALT_SAFETY_WORKS,VISIBLE,Health,Health-Air Quality-,Public Health-Outdoor Air Quality-All,All,11/14/2019,8:28 PM,11,2019,RESOL,N,11/15/2019,11.0,2019.0,1.0,"7813 State Line Rd64114
(38.987017, -94.607722)",Jackson,38.987017,-94.607722,120484,http://city.kcmo.org/kc/ActionCenterRequest/CaseInfo.aspx?CaseID=2019192769
2894,2019182173,2021 NE Russell Rd STE 115,River Forest,H,64116.0,Shoal Creek,1.0,PHONE,30436,Public Health,1447,10,807,Services,Public Health Services,PUBLIC_HEALT_SAFETY_WORKS,NOT_VISIBLE,Health,Health-Healthy Homes-,Public Health-Services-Healthy Homes Information,Healthy Homes Information,10/21/2019,10:24 AM,10,2019,RESOL,Y,10/31/2019,10.0,2019.0,10.0,"2021 NE Russell Rd64116
(39.166087, -94.555944)",Clay,39.166087,-94.555944,85528,http://city.kcmo.org/kc/ActionCenterRequest/CaseInfo.aspx?CaseID=2019182173
2895,2019182454,10601 E 98th Ter,Highview Estates,H,64134.0,South,5.0,PHONE,30436,Public Health,1447,10,807,Services,Public Health Services,PUBLIC_HEALT_SAFETY_WORKS,NOT_VISIBLE,Health,Health-Healthy Homes-,Public Health-Services-Healthy Homes Information,Healthy Homes Information,10/21/2019,1:52 PM,10,2019,RESOL,Y,10/31/2019,10.0,2019.0,10.0,"10601 E 98th Ter64134
(38.943977, -94.459141)",Jackson,38.943977,-94.459141,67934,http://city.kcmo.org/kc/ActionCenterRequest/CaseInfo.aspx?CaseID=2019182454
2896,2019182338,1103 W 101st Ter A-F,Lea Manor,H,64114.0,South,6.0,PHONE,30436,Public Health,1447,10,807,Services,Public Health Services,PUBLIC_HEALT_SAFETY_WORKS,NOT_VISIBLE,Health,Health-Healthy Homes-,Public Health-Services-Healthy Homes Information,Healthy Homes Information,10/21/2019,12:13 PM,10,2019,RESOL,Y,10/31/2019,10.0,2019.0,10.0,"1103 W 101st Ter
A-F 64114
(38.944902, -94.604554)",Jackson,38.944902,-94.604554,153050,http://city.kcmo.org/kc/ActionCenterRequest/CaseInfo.aspx?CaseID=2019182338
2897,2020008121,7519 Wyoming St,Ward Parkway,H,64114.0,Metro,6.0,WEB,13543,Public Health,1447,1,9171,Noise,Public Health Noise,PUBLIC_HEALT_SAFETY_WORKS,VISIBLE,Health,Health-Noise Control-,Public Health-Noise-Vehicles,Vehicles,1/20/2020,3:34 PM,1,2020,RESOL,N,1/21/2020,1.0,2020.0,1.0,"7519 Wyoming St64114
(38.99239, -94.606558)",Jackson,38.99239,-94.606558,120460,http://city.kcmo.org/kc/ActionCenterRequest/CaseInfo.aspx?CaseID=2020008121
2898,2019179993,14 W 62nd Ter,Morningside,H,64113.0,Metro,6.0,PHONE,30436,Public Health,1447,6,2053,Food Establishment,Public Health Food Establishment,PUBLIC_HEALT_SAFETY_WORKS,NOT_VISIBLE,Health,Health-Food Protection-,Public Health-Food Establishment-Convenience/Grocery Store,Convenience / Grocery Store,10/15/2019,11:06 AM,10,2019,RESOL,N,10/21/2019,10.0,2019.0,6.0,"14 W 62nd Ter64113
(39.015094, -94.589237)",Jackson,39.015094,-94.589237,106808,http://city.kcmo.org/kc/ActionCenterRequest/CaseInfo.aspx?CaseID=2019179993
2899,2019171286,3802 NW 85th Ter,Coves North,H,64154.0,North,2.0,PHONE,30436,Public Health,1447,14,674,Services,Public Health Services,PUBLIC_HEALT_SAFETY_WORKS,NOT_VISIBLE,Health,Health-Healthy Homes-,Public Health-Services-Healthy Homes Information,Healthy Homes Information,9/25/2019,12:23 PM,9,2019,RESOL,Y,10/9/2019,10.0,2019.0,14.0,"3802 NW 85th Ter64154
(39.24972, -94.625152)",Platte,39.24972,-94.625152,215781,http://city.kcmo.org/kc/ActionCenterRequest/CaseInfo.aspx?CaseID=2019171286
2900,2019200713,8438 N Donnelly Ct,Shoal Creek,H,64157.0,Shoal Creek,1.0,PHONE,30436,Public Health,1447,0,4266,Noise,Public Health Noise,PUBLIC_HEALT_SAFETY_WORKS,VISIBLE,Health,Health-Noise Control-,Public Health-Noise-Vehicles,Vehicles,12/6/2019,1:02 PM,12,2019,RESOL,N,12/6/2019,12.0,2019.0,0.0,"8438 N Donnelly Ct64157
(39.247514, -94.482994)",Clay,39.247514,-94.482994,225628,http://city.kcmo.org/kc/ActionCenterRequest/CaseInfo.aspx?CaseID=2019200713
2901,2019209942,11431 N Wayne Ave,Nashua,H,64155.0,Shoal Creek,2.0,WEB,13543,Public Health,1447,2,4179,Noise,Public Health Noise,PUBLIC_HEALT_SAFETY_WORKS,VISIBLE,Health,Health-Noise Control-,Public Health-Noise-Other,Other,12/28/2019,3:34 AM,12,2019,RESOL,N,12/30/2019,12.0,2019.0,2.0,"11431 N Wayne Ave64155
(39.301103, -94.559113)",Clay,39.30110300000001,-94.559113,100982,http://city.kcmo.org/kc/ActionCenterRequest/CaseInfo.aspx?CaseID=2019209942
2902,2019186805,5306 Holmes St,Crestwood,H,64110.0,Metro,4.0,WEB,13543,Public Health,1447,33,224,Services,Public Health Services,PUBLIC_HEALT_SAFETY_WORKS,NOT_VISIBLE,Health,Health-Healthy Homes-,Public Health-Services-Healthy Homes Information,Healthy Homes Information,10/30/2019,2:05 PM,10,2019,RESOL,Y,12/2/2019,12.0,2019.0,33.0,"5306 Holmes St64110
(39.030641, -94.578876)",Jackson,39.030641,-94.578876,143364,http://city.kcmo.org/kc/ActionCenterRequest/CaseInfo.aspx?CaseID=2019186805
2903,2020004185,9701 N Ash Ave,Shoal Creek,H,64157.0,Shoal Creek,1.0,PHONE,30436,Public Health,1447,5,2293,Food Establishment,Public Health Food Establishment,PUBLIC_HEALT_SAFETY_WORKS,NOT_VISIBLE,Health,Health-Food Protection-,Public Health-Food Establishment-Restaurant,Restaurant,1/10/2020,9:40 AM,1,2020,RESOL,N,1/15/2020,1.0,2020.0,5.0,"9701 N Ash Ave64157
(39.26794, -94.451152)",Clay,39.26794,-94.451152,222649,http://city.kcmo.org/kc/ActionCenterRequest/CaseInfo.aspx?CaseID=2020004185
2904,2019197231,8600 N Boardwalk Ave,Coves North,H,64154.0,North,2.0,WEB,13543,Public Health,1447,6,2053,Food Establishment,Public Health Food Establishment,PUBLIC_HEALT_SAFETY_WORKS,NOT_VISIBLE,Health,Health-Food Protection-,Public Health-Food Establishment-Restaurant,Restaurant,11/26/2019,10:42 AM,11,2019,RESOL,N,12/2/2019,12.0,2019.0,6.0,"8600 N Boardwalk Ave64154
(39.25325, -94.65255)",Platte,39.25325,-94.65255,224403,http://city.kcmo.org/kc/ActionCenterRequest/CaseInfo.aspx?CaseID=2019197231
2905,2019177327,1300 W 103rd St,Lea Manor,H,64114.0,South,6.0,PHONE,30436,Public Health,1447,3,3615,Food Establishment,Public Health Food Establishment,PUBLIC_HEALT_SAFETY_WORKS,NOT_VISIBLE,Health,Health-Food Protection-,Public Health-Food Establishment-Restaurant,Restaurant,10/8/2019,5:25 PM,10,2019,RESOL,N,10/11/2019,10.0,2019.0,3.0,"1300 W 103rd St64114
(38.942414, -94.607237)",Jackson,38.942414,-94.607237,153178,http://city.kcmo.org/kc/ActionCenterRequest/CaseInfo.aspx?CaseID=2019177327
2906,2019196559,4700 NE Vivion Rd,Foxwoods-Carriage Hills,H,64119.0,Shoal Creek,1.0,PHONE,30436,Public Health,1447,7,1826,Food Establishment,Public Health Food Establishment,PUBLIC_HEALT_SAFETY_WORKS,NOT_VISIBLE,Health,Health-Food Protection-,Public Health-Food Establishment-Restaurant,Restaurant,11/25/2019,9:47 AM,11,2019,RESOL,N,12/2/2019,12.0,2019.0,7.0,"4700 NE Vivion Rd64119
(39.188453, -94.524941)",Clay,39.188453,-94.524941,80907,http://city.kcmo.org/kc/ActionCenterRequest/CaseInfo.aspx?CaseID=2019196559
2907,2019197662,108 W 115th St,Verona Hills,H,64114.0,South,6.0,WEB,13543,Public Health,1447,7,1826,Noise,Public Health Noise,PUBLIC_HEALT_SAFETY_WORKS,VISIBLE,Health,Health-Noise Control-,Public Health-Noise-Other,Other,11/27/2019,9:52 AM,11,2019,RESOL,N,12/4/2019,12.0,2019.0,7.0,"108 W 115th St64114
(38.919084, -94.595714)",Jackson,38.91908400000001,-94.595714,157174,http://city.kcmo.org/kc/ActionCenterRequest/CaseInfo.aspx?CaseID=2019197662
2908,2019196884,8451 NW Prairie View Rd,Prairie Point-Wildberry,H,64153.0,North,2.0,PHONE,30436,Public Health,1447,7,1826,Food Establishment,Public Health Food Establishment,PUBLIC_HEALT_SAFETY_WORKS,NOT_VISIBLE,Health,Health-Food Protection-,Public Health-Food Establishment-Restaurant,Restaurant,11/25/2019,2:53 PM,11,2019,RESOL,N,12/2/2019,12.0,2019.0,7.0,"8451 NW Prairie View Rd64153
(39.248348, -94.660239)",Platte,39.248348,-94.660239,232580,http://city.kcmo.org/kc/ActionCenterRequest/CaseInfo.aspx?CaseID=2019196884
2909,2019208135,8461 NW Prairie View Rd,Prairie Point-Wildberry,H,64153.0,North,2.0,PHONE,30436,Public Health,1447,7,1826,Food Establishment,Public Health Food Establishment,PUBLIC_HEALT_SAFETY_WORKS,NOT_VISIBLE,Health,Health-Food Protection-,Public Health-Food Establishment-Restaurant,Restaurant,12/23/2019,9:59 AM,12,2019,RESOL,N,12/30/2019,12.0,2019.0,7.0,"8461 NW Prairie View Rd64153
(39.248793, -94.660293)",Platte,39.248793,-94.660293,232579,http://city.kcmo.org/kc/ActionCenterRequest/CaseInfo.aspx?CaseID=2019208135
2910,2019196591,7122 Wornall Rd,Ward Parkway,H,64114.0,Metro,6.0,PHONE,30436,Public Health,1447,7,1826,Food Establishment,Public Health Food Establishment,PUBLIC_HEALT_SAFETY_WORKS,NOT_VISIBLE,Health,Health-Food Protection-,Public Health-Food Establishment-Restaurant,Restaurant,11/25/2019,10:07 AM,11,2019,RESOL,N,12/2/2019,12.0,2019.0,7.0,"7122 Wornall Rd64114
(38.999149, -94.594223)",Jackson,38.999149,-94.594223,110512,http://city.kcmo.org/kc/ActionCenterRequest/CaseInfo.aspx?CaseID=2019196591
2911,2020018663,5700 Troost Ave,Western 49-63,H,64110.0,Metro,4.0,PHONE,30436,Public Health,1447,5,2293,Food Establishment,Public Health Food Establishment,PUBLIC_HEALT_SAFETY_WORKS,NOT_VISIBLE,Health,Health-Food Protection-,Public Health-Food Establishment-Other,Other,2/6/2020,3:00 PM,2,2020,RESOL,N,2/11/2020,2.0,2020.0,5.0,"5700 Troost Ave64110
(39.023301, -94.574391)",Jackson,39.023301,-94.574391,145068,http://city.kcmo.org/kc/ActionCenterRequest/CaseInfo.aspx?CaseID=2020018663
2912,2020029741,8800 NW Skyview Ave,Coves North,H,64154.0,North,2.0,PHONE,30436,Public Health,1447,4,2743,Food Establishment,Public Health Food Establishment,PUBLIC_HEALT_SAFETY_WORKS,NOT_VISIBLE,Health,Health-Food Protection-,Public Health-Food Establishment-Restaurant,Restaurant,2/27/2020,2:05 PM,2,2020,RESOL,N,3/2/2020,3.0,2020.0,4.0,"8800 NW Skyview Ave64154
(39.255249, -94.650781)",Platte,39.255249,-94.650781,260537,http://city.kcmo.org/kc/ActionCenterRequest/CaseInfo.aspx?CaseID=2020029741
2913,2019192730,8700 N Flintlock Rd,Shoal Creek,H,64157.0,Shoal Creek,1.0,PHONE,30436,Public Health,1447,4,2743,Food Establishment,Public Health Food Establishment,PUBLIC_HEALT_SAFETY_WORKS,NOT_VISIBLE,Health,Health-Food Protection-,Public Health-Food Establishment-Restaurant,Restaurant,11/14/2019,5:17 PM,11,2019,RESOL,N,11/18/2019,11.0,2019.0,4.0,"8700 N Flintlock Rd64157
(39.24778, -94.465863)",Clay,39.24778,-94.465863,254455,http://city.kcmo.org/kc/ActionCenterRequest/CaseInfo.aspx?CaseID=2019192730
2914,2019197079,6100 NW 63rd Ter,Parkdale And Walden,H,64151.0,North,2.0,WEB,13543,Public Health,1447,6,2053,Food Establishment,Public Health Food Establishment,PUBLIC_HEALT_SAFETY_WORKS,NOT_VISIBLE,Health,Health-Food Protection-,Public Health-Food Establishment-Restaurant,Restaurant,11/26/2019,6:59 AM,11,2019,RESOL,N,12/2/2019,12.0,2019.0,6.0,"6100 NW 63rd Ter64151
(39.209642, -94.650999)",Platte,39.209642,-94.650999,255766,http://city.kcmo.org/kc/ActionCenterRequest/CaseInfo.aspx?CaseID=2019197079
2915,2020014748,8440 N Overland Ct,Coves North,H,64154.0,North,2.0,PHONE,30436,Public Health,1447,1,9171,Services,Public Health Services,PUBLIC_HEALT_SAFETY_WORKS,NOT_VISIBLE,Health,Health-Healthy Homes-,Public Health-Services-Healthy Homes Information,Healthy Homes Information,1/30/2020,8:31 AM,1,2020,RESOL,N,1/31/2020,1.0,2020.0,1.0,"8440 N Overland Ct64154
(39.247437, -94.638856)",Platte,39.247437,-94.638856,161142,http://city.kcmo.org/kc/ActionCenterRequest/CaseInfo.aspx?CaseID=2020014748
2916,2019193849,6301 Brookside Plz,Morningside,H,64113.0,Metro,6.0,PHONE,30436,Public Health,1447,1,9171,Food Establishment,Public Health Food Establishment,PUBLIC_HEALT_SAFETY_WORKS,NOT_VISIBLE,Health,Health-Food Protection-,Public Health-Food Establishment-Restaurant,Restaurant,11/18/2019,6:03 PM,11,2019,RESOL,N,11/19/2019,11.0,2019.0,1.0,"6301 Brookside Plz64113
(39.013717, -94.590435)",Jackson,39.013717,-94.590435,107145,http://city.kcmo.org/kc/ActionCenterRequest/CaseInfo.aspx?CaseID=2019193849
2917,2019163247,8800 NW Skyview Ave,Coves North,H,64154.0,North,2.0,PHONE,30436,Public Health,1447,2,4179,Food Establishment,Public Health Food Establishment,PUBLIC_HEALT_SAFETY_WORKS,NOT_VISIBLE,Health,Health-Food Protection-,Public Health-Food Establishment-Restaurant,Restaurant,9/9/2019,4:06 PM,9,2019,RESOL,N,9/11/2019,9.0,2019.0,2.0,"8800 NW Skyview Ave64154
(39.255249, -94.650781)",Platte,39.255249,-94.650781,260537,http://city.kcmo.org/kc/ActionCenterRequest/CaseInfo.aspx?CaseID=2019163247
2918,2020004397,6330 Brookside Plz,Morningside,H,64113.0,Metro,6.0,PHONE,30436,Public Health,1447,5,2293,Food Establishment,Public Health Food Establishment,PUBLIC_HEALT_SAFETY_WORKS,NOT_VISIBLE,Health,Health-Food Protection-,Public Health-Food Establishment-Restaurant,Restaurant,1/10/2020,2:29 PM,1,2020,RESOL,N,1/15/2020,1.0,2020.0,5.0,"6330 Brookside Plz64113
(39.01294, -94.591037)",Jackson,39.01294,-94.591037,107149,http://city.kcmo.org/kc/ActionCenterRequest/CaseInfo.aspx?CaseID=2020004397
2919,2019178695,6327 Brookside Plz,Morningside,H,64113.0,Metro,6.0,PHONE,30436,Public Health,1447,0,4266,Noise,Public Health Noise,PUBLIC_HEALT_SAFETY_WORKS,VISIBLE,Health,Health-Noise Control-,Public Health-Noise-Trash Truck,Trash Truck,10/11/2019,10:27 AM,10,2019,RESOL,N,10/11/2019,10.0,2019.0,0.0,"6327 Brookside Plz64113
(39.014424, -94.589893)",Jackson,39.014424,-94.589893,106807,http://city.kcmo.org/kc/ActionCenterRequest/CaseInfo.aspx?CaseID=2019178695
2920,2019178859,9600 N Polo Dr,KCI & 2nd Creek,H,64153.0,North,2.0,PHONE,30436,Public Health,1447,3,3615,Food Establishment,Public Health Food Establishment,PUBLIC_HEALT_SAFETY_WORKS,NOT_VISIBLE,Health,Health-Food Protection-,Public Health-Food Establishment-Restaurant,Restaurant,10/11/2019,4:19 PM,10,2019,RESOL,N,10/14/2019,10.0,2019.0,3.0,"9600 N Polo Dr64153
(39.270786, -94.66584)",Platte,39.270786,-94.66584,172029,http://city.kcmo.org/kc/ActionCenterRequest/CaseInfo.aspx?CaseID=2019178859
2921,2019201915,821 W 56th St,Ward Estates,H,64113.0,Metro,4.0,EMAIL,4068,Public Health,1447,1,9171,Outdoor Air Quality,Public Health Outdoor Air Quality,PUBLIC_HEALT_SAFETY_WORKS,VISIBLE,Health,Health-Air Quality-,Public Health-Outdoor Air Quality-All,All,12/10/2019,1:16 PM,12,2019,RESOL,N,12/11/2019,12.0,2019.0,1.0,"821 W 56th St64113
(39.026343, -94.598303)",Jackson,39.026343,-94.598303,143022,http://city.kcmo.org/kc/ActionCenterRequest/CaseInfo.aspx?CaseID=2019201915
2922,2019166433,400 NE 103rd St,New Mark,H,64155.0,Shoal Creek,2.0,PHONE,30436,Public Health,1447,23,246,Services,Public Health Services,PUBLIC_HEALT_SAFETY_WORKS,NOT_VISIBLE,Health,Health-Healthy Homes-,Public Health-Services-Healthy Homes Information,Healthy Homes Information,9/16/2019,10:10 AM,9,2019,RESOL,Y,10/9/2019,10.0,2019.0,23.0,"400 NE 103rd St64155
(39.280912, -94.57366)",Clay,39.280912,-94.57366,221293,http://city.kcmo.org/kc/ActionCenterRequest/CaseInfo.aspx?CaseID=2019166433
2923,2019166494,5720 N Jackson Dr,Foxwoods-Carriage Hills,H,64119.0,Shoal Creek,1.0,WEB,13543,Public Health,1447,3,3615,Noise,Public Health Noise,PUBLIC_HEALT_SAFETY_WORKS,VISIBLE,Health,Health-Noise Control-,Public Health-Noise-Other,Other,9/16/2019,10:55 AM,9,2019,RESOL,N,9/19/2019,9.0,2019.0,3.0,"5720 N Jackson Dr64119
(39.197885, -94.530085)",Clay,39.197885,-94.530085,90013,http://city.kcmo.org/kc/ActionCenterRequest/CaseInfo.aspx?CaseID=2019166494
2924,2019179136,501 W 75th St,Ward Parkway,H,64114.0,Metro,6.0,WEB,13543,Public Health,1447,7,1826,Food Establishment,Public Health Food Establishment,PUBLIC_HEALT_SAFETY_WORKS,NOT_VISIBLE,Health,Health-Food Protection-,Public Health-Food Establishment-Restaurant,Restaurant,10/14/2019,8:39 AM,10,2019,RESOL,N,10/21/2019,10.0,2019.0,7.0,"501 W 75th St64114
(38.992296, -94.595415)",Jackson,38.992296,-94.595415,119821,http://city.kcmo.org/kc/ActionCenterRequest/CaseInfo.aspx?CaseID=2019179136
2925,2020016696,3732 N Briarcliff Rd,Briarcliff And Claymont,H,64116.0,North,4.0,PHONE,30436,Public Health,1447,0,4266,Services,Public Health Services,PUBLIC_HEALT_SAFETY_WORKS,NOT_VISIBLE,Health,Health-Healthy Homes-,Public Health-Services-Healthy Homes Information,Healthy Homes Information,2/3/2020,1:47 PM,2,2020,RESOL,N,2/3/2020,2.0,2020.0,0.0,"3732 N Briarcliff Rd64116
(39.162134, -94.588175)",Clay,39.162134,-94.588175,84972,http://city.kcmo.org/kc/ActionCenterRequest/CaseInfo.aspx?CaseID=2020016696
2926,2020016656,3650 N Briarcliff Rd,Briarcliff And Claymont,H,64116.0,North,4.0,PHONE,30436,Public Health,1447,0,4266,Services,Public Health Services,PUBLIC_HEALT_SAFETY_WORKS,NOT_VISIBLE,Health,Health-Healthy Homes-,Public Health-Services-Healthy Homes Information,Healthy Homes Information,2/3/2020,1:11 PM,2,2020,RESOL,N,2/3/2020,2.0,2020.0,0.0,"3650 N Briarcliff Rd64116
(39.160487, -94.586081)",Clay,39.160487,-94.586081,84964,http://city.kcmo.org/kc/ActionCenterRequest/CaseInfo.aspx?CaseID=2020016656
2927,2019172789,520 W 75th St,Ward Parkway,H,64114.0,Metro,6.0,PHONE,30436,Public Health,1447,5,2293,Food Establishment,Public Health Food Establishment,PUBLIC_HEALT_SAFETY_WORKS,NOT_VISIBLE,Health,Health-Food Protection-,Public Health-Food Establishment-Restaurant,Restaurant,9/27/2019,4:48 PM,9,2019,RESOL,N,10/2/2019,10.0,2019.0,5.0,"520 W 75th St64114
(38.992868, -94.595855)",Jackson,38.992868,-94.595855,110989,http://city.kcmo.org/kc/ActionCenterRequest/CaseInfo.aspx?CaseID=2019172789
2928,2019172678,9269 NE 83rd Ter,Shoal Creek,H,64158.0,Shoal Creek,1.0,PHONE,30436,Public Health,1447,5,2293,Food Establishment,Public Health Food Establishment,PUBLIC_HEALT_SAFETY_WORKS,NOT_VISIBLE,Health,Health-Food Protection-,Public Health-Food Establishment-Restaurant,Restaurant,9/27/2019,2:25 PM,9,2019,RESOL,N,10/2/2019,10.0,2019.0,5.0,"9269 NE 83rd Ter64158
(39.243664, -94.467274)",Clay,39.243664,-94.467274,238901,http://city.kcmo.org/kc/ActionCenterRequest/CaseInfo.aspx?CaseID=2019172678
2929,2020016429,2011 NE Russell Rd STE 206,River Forest,H,64116.0,Shoal Creek,1.0,PHONE,30436,Public Health,1447,21,417,Services,Public Health Services,PUBLIC_HEALT_SAFETY_WORKS,NOT_VISIBLE,Health,Health-Healthy Homes-,Public Health-Services-Healthy Homes Information,Healthy Homes Information,2/3/2020,8:57 AM,2,2020,RESOL,Y,2/24/2020,2.0,2020.0,21.0,"2011 NE Russell Rd64116
(39.166087, -94.555944)",Clay,39.166087,-94.555944,85528,http://city.kcmo.org/kc/ActionCenterRequest/CaseInfo.aspx?CaseID=2020016429
2930,2020016467,9500 NE Barry Rd,Shoal Creek,H,64157.0,Shoal Creek,1.0,PHONE,30436,Public Health,1447,8,1466,Food Establishment,Public Health Food Establishment,PUBLIC_HEALT_SAFETY_WORKS,NOT_VISIBLE,Health,Health-Food Protection-,Public Health-Food Establishment-Restaurant,Restaurant,2/3/2020,9:34 AM,2,2020,RESOL,N,2/11/2020,2.0,2020.0,8.0,"9500 NE Barry Rd64157
(39.245498, -94.4622)",Clay,39.245498,-94.4622,97632,http://city.kcmo.org/kc/ActionCenterRequest/CaseInfo.aspx?CaseID=2020016467
2931,2020004052,5165 NW 85th St,Coves North,H,64154.0,North,2.0,PHONE,30436,Public Health,1447,26,303,Services,Public Health Services,PUBLIC_HEALT_SAFETY_WORKS,NOT_VISIBLE,Health,Health-Healthy Homes-,Public Health-Services-Healthy Homes Information,Healthy Homes Information,1/9/2020,5:26 PM,1,2020,RESOL,Y,2/4/2020,2.0,2020.0,26.0,"5165 NW 85th St64154
(39.248657, -94.638354)",Platte,39.248657,-94.638354,161143,http://city.kcmo.org/kc/ActionCenterRequest/CaseInfo.aspx?CaseID=2020004052
2932,2019169577,7612 NW 69th Ter,Royal Oaks North,H,64152.0,North,2.0,WEB,13543,Public Health,1447,1,9171,Noise,Public Health Noise,PUBLIC_HEALT_SAFETY_WORKS,VISIBLE,Health,Health-Noise Control-,Public Health-Noise-Music,Music,9/22/2019,2:49 PM,9,2019,RESOL,N,9/23/2019,9.0,2019.0,1.0,"7612 NW 69th Ter64152
(39.220849, -94.66959)",Platte,39.220849,-94.66959,171233,http://city.kcmo.org/kc/ActionCenterRequest/CaseInfo.aspx?CaseID=2019169577
2933,2020014579,4855 Main St,South Plaza,H,64112.0,Metro,4.0,PHONE,30436,Public Health,1447,2,4179,Food Establishment,Public Health Food Establishment,PUBLIC_HEALT_SAFETY_WORKS,NOT_VISIBLE,Health,Health-Food Protection-,Public Health-Food Establishment-Restaurant,Restaurant,1/29/2020,4:25 PM,1,2020,RESOL,N,1/31/2020,1.0,2020.0,2.0,"4855 Main St64112
(39.0392, -94.586595)",Jackson,39.0392,-94.586595,215425,http://city.kcmo.org/kc/ActionCenterRequest/CaseInfo.aspx?CaseID=2020014579
2934,2020030618,5806 Troost Ave,Western 49-63,H,64110.0,Metro,4.0,PHONE,30436,Public Health,1447,5,2293,Food Establishment,Public Health Food Establishment,PUBLIC_HEALT_SAFETY_WORKS,NOT_VISIBLE,Health,Health-Food Protection-,Public Health-Food Establishment-Restaurant,Restaurant,2/28/2020,4:08 PM,2,2020,RESOL,N,3/4/2020,3.0,2020.0,5.0,"5806 Troost Ave64110
(39.021562, -94.57449)",Jackson,39.021562,-94.57449,145075,http://city.kcmo.org/kc/ActionCenterRequest/CaseInfo.aspx?CaseID=2020030618
2935,2019181050,4902 NE 91st Ter,Shoal Creek,H,64156.0,Shoal Creek,1.0,PHONE,30436,Public Health,1447,1,9171,Noise,Public Health Noise,PUBLIC_HEALT_SAFETY_WORKS,VISIBLE,Health,Health-Noise Control-,Public Health-Noise-All,All,10/16/2019,5:56 PM,10,2019,RESOL,N,10/17/2019,10.0,2019.0,1.0,"4902 NE 91st Ter64156
(39.259592, -94.521924)",Clay,39.259592,-94.521924,248465,http://city.kcmo.org/kc/ActionCenterRequest/CaseInfo.aspx?CaseID=2019181050
2936,2019199779,8801 NW 112th St,KCI & 2nd Creek,H,64153.0,North,2.0,PHONE,30436,Public Health,1447,2,4179,Food Establishment,Public Health Food Establishment,PUBLIC_HEALT_SAFETY_WORKS,NOT_VISIBLE,Health,Health-Food Protection-,Public Health-Food Establishment-Restaurant,Restaurant,12/4/2019,3:27 PM,12,2019,RESOL,N,12/6/2019,12.0,2019.0,2.0,"8801 NW 112th St64153
(39.295176, -94.682869)",Platte,39.295176,-94.682869,171861,http://city.kcmo.org/kc/ActionCenterRequest/CaseInfo.aspx?CaseID=2019199779
2937,2020012842,6061 NW 64th St,Parkdale And Walden,H,64151.0,North,2.0,PHONE,30436,Public Health,1447,2,4179,Food Establishment,Public Health Food Establishment,PUBLIC_HEALT_SAFETY_WORKS,NOT_VISIBLE,Health,Health-Food Protection-,Public Health-Food Establishment-Convenience/Grocery Store,Convenience / Grocery Store,1/27/2020,3:57 PM,1,2020,RESOL,N,1/29/2020,1.0,2020.0,2.0,"6061 NW 64th St64151
(39.209792, -94.650003)",Platte,39.209792,-94.650003,260910,http://city.kcmo.org/kc/ActionCenterRequest/CaseInfo.aspx?CaseID=2020012842
2938,2020012889,10221 State Line Rd,Lea Manor,H,64114.0,South,6.0,PHONE,30436,Public Health,1447,2,4179,Food Establishment,Public Health Food Establishment,PUBLIC_HEALT_SAFETY_WORKS,NOT_VISIBLE,Health,Health-Food Protection-,Public Health-Food Establishment-Restaurant,Restaurant,1/27/2020,4:26 PM,1,2020,RESOL,N,1/29/2020,1.0,2020.0,2.0,"10221 State Line Rd64114
(38.944182, -94.607493)",Jackson,38.944182,-94.607493,153176,http://city.kcmo.org/kc/ActionCenterRequest/CaseInfo.aspx?CaseID=2020012889
2939,2020012931,8383 N Booth Ave,Shoal Creek,H,64158.0,Shoal Creek,1.0,PHONE,30436,Public Health,1447,4,2743,Food Establishment,Public Health Food Establishment,PUBLIC_HEALT_SAFETY_WORKS,NOT_VISIBLE,Health,Health-Food Protection-,Public Health-Food Establishment-Convenience/Grocery Store,Convenience / Grocery Store,1/27/2020,4:51 PM,1,2020,RESOL,N,1/31/2020,1.0,2020.0,4.0,"8383 N Booth Ave64158
(39.243863, -94.475128)",Clay,39.243863,-94.475128,258200,http://city.kcmo.org/kc/ActionCenterRequest/CaseInfo.aspx?CaseID=2020012931
2940,2019194192,6350 NW Barry Rd,Coves North,H,64154.0,North,2.0,PHONE,30436,Public Health,1447,0,4266,Food Establishment,Public Health Food Establishment,PUBLIC_HEALT_SAFETY_WORKS,NOT_VISIBLE,Health,Health-Food Protection-,Public Health-Food Establishment-Restaurant,Restaurant,11/19/2019,1:48 PM,11,2019,RESOL,N,11/19/2019,11.0,2019.0,0.0,"6350 NW Barry Rd64154
(39.247533, -94.654057)",Platte,39.247533,-94.654057,160436,http://city.kcmo.org/kc/ActionCenterRequest/CaseInfo.aspx?CaseID=2019194192
2941,2019181141,8625 N Mattox Rd,Coves North,H,64154.0,North,2.0,PHONE,30436,Public Health,1447,14,674,Services,Public Health Services,PUBLIC_HEALT_SAFETY_WORKS,NOT_VISIBLE,Health,Health-Healthy Homes-,Public Health-Services-Healthy Homes Information,Healthy Homes Information,10/17/2019,8:59 AM,10,2019,RESOL,Y,10/31/2019,10.0,2019.0,14.0,"8625 N Mattox Rd64154
(39.252314, -94.647273)",Platte,39.252314,-94.647273,160261,http://city.kcmo.org/kc/ActionCenterRequest/CaseInfo.aspx?CaseID=2019181141
2942,2020004127,6271 N London Ave,Breen Hills,H,64151.0,North,2.0,EMAIL,4068,Public Health,1447,25,295,Services,Public Health Services,PUBLIC_HEALT_SAFETY_WORKS,NOT_VISIBLE,Health,Health-Healthy Homes-,Public Health-Services-Healthy Homes Information,Healthy Homes Information,1/10/2020,8:15 AM,1,2020,RESOL,Y,2/4/2020,2.0,2020.0,25.0,"6271 N London Ave64151
(39.207231, -94.632637)",Platte,39.207231,-94.632637,280207,http://city.kcmo.org/kc/ActionCenterRequest/CaseInfo.aspx?CaseID=2020004127
2943,2020004491,1237 Arno Rd,Romanelli West,H,64113.0,Metro,6.0,EMAIL,4068,Public Health,1447,25,295,Services,Public Health Services,PUBLIC_HEALT_SAFETY_WORKS,NOT_VISIBLE,Health,Health-Healthy Homes-,Public Health-Services-Healthy Homes Information,Healthy Homes Information,1/10/2020,4:17 PM,1,2020,RESOL,Y,2/4/2020,2.0,2020.0,25.0,"1237 Arno Rd64113
(39.004088, -94.607231)",Jackson,39.004088,-94.607231,110003,http://city.kcmo.org/kc/ActionCenterRequest/CaseInfo.aspx?CaseID=2020004491
2944,2020008298,319 E 63rd St,Morningside,H,64113.0,Metro,6.0,PHONE,30436,Public Health,1447,180,2874,Food Establishment,Public Health Food Establishment,PUBLIC_HEALT_SAFETY_WORKS,NOT_VISIBLE,Health,Health-Food Protection-,Public Health-Food Establishment-Convenience/Grocery Store,Convenience / Grocery Store,1/21/2020,8:47 AM,1,2020,OPEN,N,,,,,"319 E 63rd St64113
(39.013391, -94.584088)",Jackson,39.013391,-94.584088,106944,http://city.kcmo.org/kc/ActionCenterRequest/CaseInfo.aspx?CaseID=2020008298
2945,2020014751,8400 N Overland Ct,Coves North,H,64154.0,North,2.0,PHONE,30436,Public Health,1447,1,9171,Services,Public Health Services,PUBLIC_HEALT_SAFETY_WORKS,NOT_VISIBLE,Health,Health-Healthy Homes-,Public Health-Services-Healthy Homes Information,Healthy Homes Information,1/30/2020,8:32 AM,1,2020,RESOL,N,1/31/2020,1.0,2020.0,1.0,"8400 N Overland Ct64154
(39.247437, -94.638856)",Platte,39.247437,-94.638856,161142,http://city.kcmo.org/kc/ActionCenterRequest/CaseInfo.aspx?CaseID=2020014751
2946,2020016356,7621 Belleview Ave,Ward Parkway,H,64114.0,Metro,6.0,WEB,13543,Public Health,1447,1,9171,Noise,Public Health Noise,PUBLIC_HEALT_SAFETY_WORKS,VISIBLE,Health,Health-Noise Control-,Public Health-Noise-Other,Other,2/2/2020,9:22 PM,2,2020,RESOL,N,2/3/2020,2.0,2020.0,1.0,"7621 Belleview Ave64114
(38.990849, -94.600844)",Jackson,38.990849,-94.600844,119887,http://city.kcmo.org/kc/ActionCenterRequest/CaseInfo.aspx?CaseID=2020016356
2947,2019211243,6229 Brookside Blvd,Morningside,H,64113.0,Metro,6.0,PHONE,30436,Public Health,1447,3,3615,Food Establishment,Public Health Food Establishment,PUBLIC_HEALT_SAFETY_WORKS,NOT_VISIBLE,Health,Health-Food Protection-,Public Health-Food Establishment-Restaurant,Restaurant,12/31/2019,3:11 PM,12,2019,RESOL,N,1/3/2020,1.0,2020.0,3.0,"6229 Brookside Blvd64113
(39.014376, -94.591027)",Jackson,39.014376,-94.591027,106806,http://city.kcmo.org/kc/ActionCenterRequest/CaseInfo.aspx?CaseID=2019211243
2948,2019211193,700 E Red Bridge Rd,Red Bridge North,H,64131.0,South,6.0,PHONE,30436,Public Health,1447,2,4179,Food Establishment,Public Health Food Establishment,PUBLIC_HEALT_SAFETY_WORKS,NOT_VISIBLE,Health,Health-Food Protection-,Public Health-Food Establishment-Restaurant,Restaurant,12/31/2019,1:40 PM,12,2019,RESOL,N,1/2/2020,1.0,2020.0,2.0,"700 E Red Bridge Rd64131
(38.926151, -94.582745)",Jackson,38.926151,-94.582745,154888,http://city.kcmo.org/kc/ActionCenterRequest/CaseInfo.aspx?CaseID=2019211193
2949,2019172071,310 E 70th Ter,Armour Hills,H,64113.0,Metro,6.0,PHONE,30436,Public Health,1447,13,635,Services,Public Health Services,PUBLIC_HEALT_SAFETY_WORKS,NOT_VISIBLE,Health,Health-Healthy Homes-,Public Health-Services-Healthy Homes Information,Healthy Homes Information,9/26/2019,1:52 PM,9,2019,RESOL,Y,10/9/2019,10.0,2019.0,13.0,"310 E 70th Ter64113
(39.000268, -94.585641)",Jackson,39.000268,-94.585641,112209,http://city.kcmo.org/kc/ActionCenterRequest/CaseInfo.aspx?CaseID=2019172071
2950,2019183727,10650 NE Staley Rd,Shoal Creek,H,64155.0,Shoal Creek,1.0,EMAIL,4068,Public Health,1447,0,4266,Noise,Public Health Noise,PUBLIC_HEALT_SAFETY_WORKS,VISIBLE,Health,Health-Noise Control-,Public Health-Noise-Other,Other,10/23/2019,11:12 AM,10,2019,RESOL,N,10/23/2019,10.0,2019.0,0.0,"10650 NE Staley Rd64155
(39.287525, -94.554456)",Clay,39.287525,-94.554456,218135,http://city.kcmo.org/kc/ActionCenterRequest/CaseInfo.aspx?CaseID=2019183727
2951,2019184015,8600 N Boardwalk Ave,Coves North,H,64154.0,North,2.0,PHONE,30436,Public Health,1447,5,2293,Food Establishment,Public Health Food Establishment,PUBLIC_HEALT_SAFETY_WORKS,NOT_VISIBLE,Health,Health-Food Protection-,Public Health-Food Establishment-Restaurant,Restaurant,10/23/2019,4:44 PM,10,2019,RESOL,N,10/28/2019,10.0,2019.0,5.0,"8600 N Boardwalk Ave64154
(39.25325, -94.65255)",Platte,39.25325,-94.65255,224403,http://city.kcmo.org/kc/ActionCenterRequest/CaseInfo.aspx?CaseID=2019184015
2952,2019189787,11200 N Ambassador Dr,KCI & 2nd Creek,H,64153.0,North,2.0,PHONE,30436,Public Health,1447,1,9171,Food Establishment,Public Health Food Establishment,PUBLIC_HEALT_SAFETY_WORKS,NOT_VISIBLE,Health,Health-Food Protection-,Public Health-Food Establishment-Convenience/Grocery Store,Convenience / Grocery Store,11/6/2019,2:43 PM,11,2019,RESOL,N,11/7/2019,11.0,2019.0,1.0,"11200 N Ambassador Dr64153
(39.297205, -94.682137)",Platte,39.297205,-94.682137,171772,http://city.kcmo.org/kc/ActionCenterRequest/CaseInfo.aspx?CaseID=2019189787
2953,2020005157,6327 Brookside Plz,Morningside,H,64113.0,Metro,6.0,PHONE,30436,Public Health,1447,2,4179,Food Establishment,Public Health Food Establishment,PUBLIC_HEALT_SAFETY_WORKS,NOT_VISIBLE,Health,Health-Food Protection-,Public Health-Food Establishment-Restaurant,Restaurant,1/13/2020,11:52 AM,1,2020,RESOL,N,1/15/2020,1.0,2020.0,2.0,"6327 Brookside Plz64113
(39.012557, -94.590153)",Jackson,39.012557,-94.590153,256229,http://city.kcmo.org/kc/ActionCenterRequest/CaseInfo.aspx?CaseID=2020005157
2954,2019201114,821 W 56th St,Ward Estates,H,64113.0,Metro,4.0,PHONE,30436,Public Health,1447,0,4266,Noise,Public Health Noise,PUBLIC_HEALT_SAFETY_WORKS,VISIBLE,Health,Health-Noise Control-,Public Health-Noise-All,All,12/9/2019,8:53 AM,12,2019,RESOL,N,12/9/2019,12.0,2019.0,0.0,"821 W 56th St64113
(39.026343, -94.598303)",Jackson,39.026343,-94.598303,143022,http://city.kcmo.org/kc/ActionCenterRequest/CaseInfo.aspx?CaseID=2019201114
2955,2019160168,9223 N Oak Trfy,Gashland,H,64155.0,Shoal Creek,2.0,PHONE,30436,Public Health,1447,6,2053,Food Establishment,Public Health Food Establishment,PUBLIC_HEALT_SAFETY_WORKS,NOT_VISIBLE,Health,Health-Food Protection-,Public Health-Food Establishment-Restaurant,Restaurant,9/3/2019,3:26 PM,9,2019,RESOL,N,9/9/2019,9.0,2019.0,6.0,"9223 N Oak Trfy64155
(39.262356, -94.574028)",Clay,39.262356,-94.574028,209849,http://city.kcmo.org/kc/ActionCenterRequest/CaseInfo.aspx?CaseID=2019160168
2956,2019183650,11819 N College Ave,Shoal Creek,H,64156.0,Shoal Creek,1.0,PHONE,30436,Public Health,1447,8,1466,Services,Public Health Services,PUBLIC_HEALT_SAFETY_WORKS,NOT_VISIBLE,Health,Health-Healthy Homes-,Public Health-Services-Healthy Homes Information,Healthy Homes Information,10/23/2019,10:04 AM,10,2019,RESOL,Y,10/31/2019,10.0,2019.0,8.0,"11819 N College Ave64156
(39.307933, -94.540878)",Clay,39.307933,-94.540878,98624,http://city.kcmo.org/kc/ActionCenterRequest/CaseInfo.aspx?CaseID=2019183650
2957,2019201086,236 W 54th St,Countryside,H,64112.0,Metro,4.0,PHONE,30436,Public Health,1447,0,4266,Noise,Public Health Noise,PUBLIC_HEALT_SAFETY_WORKS,VISIBLE,Health,Health-Noise Control-,Public Health-Noise-All,All,12/9/2019,8:27 AM,12,2019,RESOL,N,12/9/2019,12.0,2019.0,0.0,"236 W 54th St64112
(39.029586, -94.591752)",Jackson,39.029586,-94.591752,143854,http://city.kcmo.org/kc/ActionCenterRequest/CaseInfo.aspx?CaseID=2019201086
